1 43013U 17073A   26040.77521454  .00000103  00000+0  69845-4 0  9995
2 43013  98.7660 341.4455 0000217  13.9825 346.1357 14.19528590426390
